NORAD_CAT_ID,OBJECT_NAME,OBJECT_TYPE,EPOCH,MEAN_MOTION,ECCENTRICITY,INCLINATION,RA_OF_ASC_NODE,ARG_OF_PERICENTER,MEAN_ANOMALY,BSTAR,MEAN_MOTION_DOT,MEAN_MOTION_DDOT,TLE_LINE0,TLE_LINE1,TLE_LINE2,SEMIMAJOR_AXIS,PERIOD,APOGEE,PERIGEE,DECAYED
49434.0,STARLINK-3134,PAYLOAD,2022-03-01 22:00:01,15.088649300000002,0.000216,53.2203,342.69,51.4725,274.5812,-0.0038954,-0.00061796,0.0,0 STARLINK-3134,1 49434U 21104AC  22060.91668981 -.00061796  00000-0 -38954-2 0  9992,2 49434  53.2203 342.6900 0002160  51.4725 274.5812 15.08864930 17986,6917.804,95.436,541.163,538.175,0.0
49434.0,STARLINK-3134,PAYLOAD,2022-03-02 14:00:01,15.08813217,0.0002096,53.2203,339.6971,51.7775,297.3959,0.0024495,0.00038883,0.0,0 STARLINK-3134,1 49434U 21104AC  22061.58334491  .00038883  00000-0  24495-2 0  9996,2 49434  53.2203 339.6971 0002096  51.7775 297.3959 15.08813217 18085,6917.962,95.439,541.2769999999998,538.377,0.0
49434.0,STARLINK-3134,PAYLOAD,2022-03-02 22:00:00,15.08856083,0.0002173,53.2205,338.2017,51.8055,308.9423,-0.0014290999999999,-0.00022971,0.0,0 STARLINK-3134,1 49434U 21104AC  22061.91667824 -.00022971  00000-0 -14291-2 0  9998,2 49434  53.2205 338.2017 0002173  51.8055 308.9423 15.08856083  3606,6917.831,95.437,541.1990000000002,538.193,0.0
49434.0,STARLINK-3134,PAYLOAD,2022-03-03 06:00:00,15.08840563,0.0002239,53.2201,336.7064,46.9195,325.4315,-0.00058949,-9.658e-05,0.0,0 STARLINK-3134,1 49434U 21104AC  22062.25001157 -.00009658  00000-0 -58949-3 0  9993,2 49434  53.2201 336.7064 0002239  46.9195 325.4315 15.08840563 18189,6917.879,95.438,541.293,538.195,0.0
49434.0,STARLINK-3134,PAYLOAD,2022-03-03 14:00:01,15.08801536,0.0002018,53.2201,335.2085,52.0605,331.8904,0.0027502,0.00043707,0.0,0 STARLINK-3134,1 49434U 21104AC  22062.58334491  .00043707  00000-0  27502-2 0  9990,2 49434  53.2201 335.2085 0002018  52.0605 331.8904 15.08801536  3608,6917.998000000001,95.44,541.259,538.467,0.0
49434.0,STARLINK-3134,PAYLOAD,2022-03-03 22:00:00,15.08846848,0.0002122,53.2202,333.7133,51.8182,343.6968,-0.0016562,-0.00026556,0.0,0 STARLINK-3134,1 49434U 21104AC  22062.91667824 -.00026556  00000-0 -16562-2 0  9995,2 49434  53.2202 333.7133 0002122  51.8182 343.6968 15.08846848  3605,6917.859,95.437,541.192,538.256,0.0
49434.0,STARLINK-3134,PAYLOAD,2022-03-04 06:00:02,15.08824669,0.0002209,53.2196,332.2178,48.0727,359.0962,0.0018269,0.00028895,0.0,0 STARLINK-3134,1 49434U 21104AC  22063.25002315  .00028895  00000-0  18269-2 0  9993,2 49434  53.2196 332.2178 0002209  48.0727 359.0962 15.08824669 18337,6917.927,95.439,541.32,538.264,0.0
49434.0,STARLINK-3134,PAYLOAD,2022-03-04 14:00:01,15.08819519,0.0002027,53.2195,330.7198,54.6452,4.125,0.0029954,0.0004768,0.0,0 STARLINK-3134,1 49434U 21104AC  22063.58335648  .00047680  00000-0  29954-2 0  9993,2 49434  53.2195 330.7198 0002027  54.6452   4.1250 15.08819519  3607,6917.943,95.439,541.21,538.406,0.0
49434.0,STARLINK-3134,PAYLOAD,2022-03-04 22:00:00,15.08869465,0.0002132,53.2195,329.2248,53.7306,16.5692,-0.0018171,-0.00029115,0.0,0 STARLINK-3134,1 49434U 21104AC  22063.91667824 -.00029115  00000-0 -18171-2 0  9998,2 49434  53.2195 329.2248 0002132  53.7306  16.5692 15.08869465  3591,6917.79,95.436,541.13,538.18,0.0
49434.0,STARLINK-3134,PAYLOAD,2022-03-05 06:00:00,15.08853362,0.0002164,53.2188,327.7290000000001,49.2659,32.6566,-0.0008513,-0.00013817,0.0,0 STARLINK-3134,1 49434U 21104AC  22064.25001157 -.00013817  00000-0 -85130-3 0  9999,2 49434  53.2188 327.7290 0002164  49.2659  32.6566 15.08853362 18481,6917.84,95.437,541.202,538.2080000000002,0.0
49434.0,STARLINK-3134,PAYLOAD,2022-03-05 14:00:01,15.08819835,0.0001941,53.2187,326.231,54.7063,38.8286,0.0028528,0.00045382,0.0,0 STARLINK-3134,1 49434U 21104AC  22064.58334491  .00045382  00000-0  28528-2 0  9992,2 49434  53.2187 326.2310 0001941  54.7063  38.8286 15.08819835  3588,6917.941999999999,95.439,541.15,538.464,0.0
49434.0,STARLINK-3134,PAYLOAD,2022-03-05 22:00:01,15.08862725,0.0002025,53.2187,324.7359,52.7813,52.4116,-0.0038154,-0.00060539,0.0,0 STARLINK-3134,1 49434U 21104AC  22064.91668981 -.00060539  00000-0 -38154-2 0  9992,2 49434  53.2187 324.7359 0002025  52.7813  52.4116 15.08862725  3613,6917.811,95.436,541.077,538.275,0.0
49434.0,STARLINK-3134,PAYLOAD,2022-03-06 06:00:00,15.08833101,0.0002062,53.2181,323.2399,48.0483,68.6854,0.0014933,0.00023553,0.0,0 STARLINK-3134,1 49434U 21104AC  22065.25001157  .00023553  00000-0  14933-2 0  9998,2 49434  53.2181 323.2399 0002062  48.0483  68.6854 15.08833101 18639,6917.901,95.438,541.193,538.34,0.0
49434.0,STARLINK-3134,PAYLOAD,2022-03-06 14:00:01,15.08839405,0.0001889,53.2181,321.7418,53.5715,74.7662,0.001214,0.00019085,0.0,0 STARLINK-3134,1 49434U 21104AC  22065.58334491  .00019085  00000-0  12140-2 0  9997,2 49434  53.2181 321.7418 0001889  53.5715  74.7662 15.08839405  3563,6917.882,95.438,541.054,538.44,0.0
49434.0,STARLINK-3134,PAYLOAD,2022-03-06 22:00:00,15.08844257,0.0001955,53.2182,320.2468,50.9946,88.9507,-0.00091328,-0.00014796,0.0,0 STARLINK-3134,1 49434U 21104AC  22065.91667824 -.00014796  00000-0 -91328-3 0  9995,2 49434  53.2182 320.2468 0001955  50.9946  88.9507 15.08844257 18735,6917.8669999999975,95.437,541.085,538.38,0.0
49434.0,STARLINK-3134,PAYLOAD,2022-03-07 12:00:00,15.0881671,0.0001764999999999,53.2182,317.627,49.4431,20.791,0.00048499,7.434e-05,0.0,0 STARLINK-3134,1 49434U 21104AC  22066.50001157  .00007434  00000-0  48499-3 0  9992,2 49434  53.2182 317.6270 0001765  49.4431  20.7910 15.08816710  3635,6917.9519999999975,95.439,541.038,538.596,0.0
49434.0,STARLINK-3134,PAYLOAD,2022-03-07 22:00:00,15.08804544,0.0001895,53.2182,315.7577,46.4601,128.2127,-0.00085793,-0.00013903,0.0,0 STARLINK-3134,1 49434U 21104AC  22066.91667824 -.00013903  00000-0 -85793-3 0  9994,2 49434  53.2182 315.7577 0001895  46.4601 128.2127 15.08804544  3584,6917.989000000001,95.44,541.165,538.543,0.0
49434.0,STARLINK-3134,PAYLOAD,2022-03-08 06:00:02,15.08810667,0.0001947,53.2181,314.2614,43.745,142.5336,7.470899999999999e-05,9e-06,0.0,0 STARLINK-3134,1 49434U 21104AC  22067.25002315  .00000900  00000-0  74709-4 0  9997,2 49434  53.2181 314.2614 0001947  43.7450 142.5336 15.08810667 18938,6917.97,95.439,541.182,538.488,0.0
49434.0,STARLINK-3134,PAYLOAD,2022-03-08 14:00:01,15.08794082,0.0001829,53.2183,312.7635,49.529,148.2484,0.0028577,0.00045429,0.0,0 STARLINK-3134,1 49434U 21104AC  22067.58334491  .00045429  00000-0  28577-2 0  9991,2 49434  53.2183 312.7635 0001829  49.5290 148.2484 15.08794082  3563,6918.021,95.44,541.151,538.62,0.0
49434.0,STARLINK-3134,PAYLOAD,2022-03-08 22:00:00,15.08826998,0.0002005,53.2185,311.2688,47.3177,162.0205,-0.00062184,-0.00010168,0.0,0 STARLINK-3134,1 49434U 21104AC  22067.91667824 -.00010168  00000-0 -62184-3 0  9994,2 49434  53.2185 311.2688 0002005  47.3177 162.0205 15.08826998  3594,6917.92,95.438,541.172,538.398,0.0
49434.0,STARLINK-3134,PAYLOAD,2022-03-09 14:00:01,15.08818216,0.0001905,53.2187,308.2745,51.3565,181.1413,0.0027342,0.0004347,0.0,0 STARLINK-3134,1 49434U 21104AC  22068.58334491  .00043470  00000-0  27342-2 0  9995,2 49434  53.2187 308.2745 0001905  51.3565 181.1413 15.08818216 19134,6917.946999999999,95.439,541.13,538.494,0.0
49434.0,STARLINK-3134,PAYLOAD,2022-03-09 22:00:01,15.08846008,0.0002081,53.2189,306.7798,48.4671,195.6808,-0.00051096,-8.413e-05,0.0,0 STARLINK-3134,1 49434U 21104AC  22068.91668981 -.00008413  00000-0 -51096-3 0  9990,2 49434  53.2189 306.7798 0002081  48.4671 195.6808 15.08846008  3599,6917.861999999999,95.437,541.1669999999998,538.2869999999998,0.0
49434.0,STARLINK-3134,PAYLOAD,2022-03-10 06:00:00,15.088618,0.0002059,53.2188,305.2833,47.2781,208.3987,-0.0012414,-0.00020003,0.0,0 STARLINK-3134,1 49434U 21104AC  22069.25001157 -.00020003  00000-0 -12414-2 0  9993,2 49434  53.2188 305.2833 0002059  47.2781 208.3987 15.08861800 19231,6917.814,95.436,541.1030000000002,538.254,0.0
49434.0,STARLINK-3134,PAYLOAD,2022-03-10 14:00:01,15.08848377,0.0001897,53.2191,303.7855,52.3051,214.9855,-0.00025594,-4.36e-05,0.0,0 STARLINK-3134,1 49434U 21104AC  22069.58334491 -.00004360  00000-0 -25594-3 0  9991,2 49434  53.2191 303.7855 0001897  52.3051 214.9855 15.08848377  3568,6917.855,95.437,541.0319999999998,538.4069999999998,0.0
49434.0,STARLINK-3134,PAYLOAD,2022-03-10 22:00:01,15.08836054,0.0002024,53.2191,302.2908,47.5436,231.4168,-0.00043903,-7.268e-05,0.0,0 STARLINK-3134,1 49434U 21104AC  22069.91668981 -.00007268  00000-0 -43903-3 0  9996,2 49434  53.2191 302.2908 0002024  47.5436 231.4168 15.08836054  3590,6917.892,95.438,541.158,538.357,0.0
49434.0,STARLINK-3134,PAYLOAD,2022-03-11 06:00:00,15.08858982,0.000206,53.218,300.7941,44.4152,246.0704,-0.0026545,-0.0004231,0.0,0 STARLINK-3134,1 49434U 21104AC  22070.25001157 -.00042310  00000-0 -26545-2 0  9990,2 49434  53.2180 300.7941 0002060  44.4152 246.0704 15.08858982 19396,6917.821999999999,95.436,541.112,538.262,0.0
49434.0,STARLINK-3134,PAYLOAD,2022-03-11 14:00:01,15.08825433,0.0002028,53.2177,299.2959,48.5192,253.5694,0.001128,0.00017703,0.0,0 STARLINK-3134,1 49434U 21104AC  22070.58334491  .00017703  00000-0  11280-2 0  9992,2 49434  53.2177 299.2959 0002028  48.5192 253.5694 15.08825433  3575,6917.925,95.438,541.193,538.387,0.0
49434.0,STARLINK-3134,PAYLOAD,2022-03-11 22:00:00,15.08859546,0.0002016,53.2189,297.8022,48.9926,264.7164,-0.0001981,-3.441e-05,0.0,0 STARLINK-3134,1 49434U 21104AC  22070.91667824 -.00003441  00000-0 -19810-3 0  9992,2 49434  53.2189 297.8022 0002016  48.9926 264.7164 15.08859546 19495,6917.821,95.436,541.08,538.2909999999998,0.0
49434.0,STARLINK-3134,PAYLOAD,2022-03-12 14:00:01,15.08812049,0.0001663,53.2186,294.808,50.35,286.5304,0.0026985,0.00042887,0.0,0 STARLINK-3134,1 49434U 21104AC  22071.58334491  .00042887  00000-0  26985-2 0  9992,2 49434  53.2186 294.8080 0001663  50.3500 286.5304 15.08812049 19591,6917.965999999999,95.439,540.981,538.68,0.0
